{"fetched_at":"2026-03-30T06:02:59Z","count":15439,"tles":[{"name":"STARLINK-35415","line1":"1 65885U 25224D   26087.80507477  .00018721  00000+0  64256-3 0  9992","line2":"2 65885  53.1594 282.3739 0000480  56.3744 303.7302 15.30202399 27704","category":"Starlink"}]}